[{"OBJECT_NAME":"HAWK-2B","OBJECT_ID":"2021-006CZ","EPOCH":"2026-03-09T16:13:51.664224","MEAN_MOTION":15.33301353,"ECCENTRICITY":0.00071021,"INCLINATION":97.2334,"RA_OF_ASC_NODE":114.114,"ARG_OF_PERICENTER":185.9063,"MEAN_ANOMALY":174.2098,"EPHEMERIS_TYPE":0,"CLASSIFICATION_TYPE":"U","NORAD_CAT_ID":47508,"ELEMENT_SET_NO":999,"REV_AT_EPOCH":28424,"BSTAR":0.00029650607,"MEAN_MOTION_DOT":9.474e-5,"MEAN_MOTION_DDOT":0},{"OBJECT_NAME":"STARLINK-35509","OBJECT_ID":"2025-243Y","EPOCH":"2026-03-09T19:22:15.415968","MEAN_MOTION":15.30205868,"ECCENTRICITY":9.629e-5,"INCLINATION":53.1599,"RA_OF_ASC_NODE":244.5686,"ARG_OF_PERICENTER":64.9004,"MEAN_ANOMALY":295.2097,"EPHEMERIS_TYPE":0,"CLASSIFICATION_TYPE":"U","NORAD_CAT_ID":66199,"ELEMENT_SET_NO":999,"REV_AT_EPOCH":2067,"BSTAR":0.00094307228,"MEAN_MOTION_DOT":0.00027681,"MEAN_MOTION_DDOT":0}]
